{"type": "FeatureCollection", "features": [ {"type": "Feature", "properties": {"norad_id": 47009, "name": "FENGYUN 1C DEB", "group": "fengyun-1c-debris", "lat": -67.96793550965809, "lon": -4.312543398655801, "alt_km": 912.7213492568089, "timestamp": "2025-12-15T07:02:37.907289+00:00", "meta": {"OBJECT_NAME": "FENGYUN 1C DEB", "OBJECT_ID": "1999-025FAK", "EPOCH": "2025-12-02T05:09:31.123584", "MEAN_MOTION": 13.37303446, "ECCENTRICITY": 0.0352227, "INCLINATION": 98.9376, "RA_OF_ASC_NODE": 321.2954, "ARG_OF_PERICENTER": 285.6992, "MEAN_ANOMALY": 70.555, "EPHEMERIS_TYPE": 0, "CLASSIFICATION_TYPE": "U", "NORAD_CAT_ID": 47009, "ELEMENT_SET_NO": 999, "REV_AT_EPOCH": 58668, "BSTAR": 0.00057132, "MEAN_MOTION_DOT": 3.87e-06, "MEAN_MOTION_DDOT": 0}, "tle": {"line1": "1 47009U 99025FAK 25336.21494356  .00000387  00000+0  57132-3 0  9996", "line2": "2 47009  98.9376 321.2954 0352227 285.6992  70.5550 13.37303446586681"}}, "geometry": {"type": "Point", "coordinates": [-4.312543398655801, -67.96793550965809]}}, {"type": "Feature", "properties": {"norad_id": 47012, "name": "FENGYUN 1C DEB", "group": "fengyun-1c-debris", "lat": -28.932048861528795, "lon": -127.5389133531358, "alt_km": 966.2972276070268, "timestamp": "2025-12-15T07:02:37.907300+00:00", "meta": {"OBJECT_NAME": "FENGYUN 1C DEB", "OBJECT_ID": "1999-025FAN", "EPOCH": "2025-12-05T22:22:36.481152", "MEAN_MOTION": 13.77908149, "ECCENTRICITY": 0.01638485, "INCLINATION": 98.755, "RA_OF_ASC_NODE": 218.9381, "ARG_OF_PERICENTER": 81.7177, "MEAN_ANOMALY": 280.2518, "EPHEMERIS_TYPE": 0, "CLASSIFICATION_TYPE": "U", "NORAD_CAT_ID": 47012, "ELEMENT_SET_NO": 999, "REV_AT_EPOCH": 54479, "BSTAR": 0.00065808903, "MEAN_MOTION_DOT": 6.91e-06, "MEAN_MOTION_DDOT": 0}, "tle": {"line1": "1 47012U 99025FAN 25339.93236668  .00000691  00000+0  65809-3 0  9990", "line2": "2 47012  98.7550 218.9381 0163848  81.7177 280.2518 13.77908149544797"}}, "geometry": {"type": "Point", "coordinates": [-127.5389133531358, -28.932048861528795]}}, {"type": "Feature", "properties": {"norad_id": 47013, "name": "FENGYUN 1C DEB", "group": "fengyun-1c-debris", "lat": -6.037506938897712, "lon": -121.96926381994199, "alt_km": 778.3147338833369, "timestamp": "2025-12-15T07:02:37.907311+00:00", "meta": {"OBJECT_NAME": "FENGYUN 1C DEB", "OBJECT_ID": "1999-025FAP", "EPOCH": "2025-11-16T11:10:59.954016", "MEAN_MOTION": 14.24672933, "ECCENTRICITY": 0.00559466, "INCLINATION": 98.0819, "RA_OF_ASC_NODE": 32.3431, "ARG_OF_PERICENTER": 238.0397, "MEAN_ANOMALY": 121.5338, "EPHEMERIS_TYPE": 0, "CLASSIFICATION_TYPE": "U", "NORAD_CAT_ID": 47013, "ELEMENT_SET_NO": 999, "REV_AT_EPOCH": 72885, "BSTAR": 0.0028202138, "MEAN_MOTION_DOT": 6.632e-05, "MEAN_MOTION_DDOT": 0}, "tle": {"line1": "1 47013U 99025FAP 25320.46597169  .00006632  00000+0  28202-2 0  9991", "line2": "2 47013  98.0819  32.3431 0055946 238.0397 121.5338 14.24672933728853"}}, "geometry": {"type": "Point", "coordinates": [-121.96926381994199, -6.037506938897712]}}, {"type": "Feature", "properties": {"norad_id": 47015, "name": "FENGYUN 1C DEB", "group": "fengyun-1c-debris", "lat": -50.006089783091845, "lon": -144.27722853580156, "alt_km": 684.1356256846811, "timestamp": "2025-12-15T07:02:37.907327+00:00", "meta": {"OBJECT_NAME": "FENGYUN 1C DEB", "OBJECT_ID": "1999-025FAR", "EPOCH": "2025-12-12T10:12:55.009152", "MEAN_MOTION": 14.87360406, "ECCENTRICITY": 0.01758364, "INCLINATION": 98.7107, "RA_OF_ASC_NODE": 43.1065, "ARG_OF_PERICENTER": 113.6048, "MEAN_ANOMALY": 248.3739, "EPHEMERIS_TYPE": 0, "CLASSIFICATION_TYPE": "U", "NORAD_CAT_ID": 47015, "ELEMENT_SET_NO": 999, "REV_AT_EPOCH": 64377, "BSTAR": 0.0010891837, "MEAN_MOTION_DOT": 0.00013037, "MEAN_MOTION_DDOT": 0}, "tle": {"line1": "1 47015U 99025FAR 25346.42563668  .00013037  00000+0  10892-2 0  9997", "line2": "2 47015  98.7107  43.1065 0175836 113.6048 248.3739 14.87360406643775"}}, "geometry": {"type": "Point", "coordinates": [-144.27722853580156, -50.006089783091845]}}, {"type": "Feature", "properties": {"norad_id": 47025, "name": "FENGYUN 1C DEB", "group": "fengyun-1c-debris", "lat": -15.904510296207922, "lon": 13.396099401084767, "alt_km": 768.3940722655616, "timestamp": "2025-12-15T07:02:37.907337+00:00", "meta": {"OBJECT_NAME": "FENGYUN 1C DEB", "OBJECT_ID": "1999-025FBB", "EPOCH": "2025-12-14T20:15:32.488128", "MEAN_MOTION": 14.46327515, "ECCENTRICITY": 0.00406551, "INCLINATION": 99.0332, "RA_OF_ASC_NODE": 195.5156, "ARG_OF_PERICENTER": 351.3377, "MEAN_ANOMALY": 26.432, "EPHEMERIS_TYPE": 0, "CLASSIFICATION_TYPE": "U", "NORAD_CAT_ID": 47025, "ELEMENT_SET_NO": 999, "REV_AT_EPOCH": 62772, "BSTAR": 0.0016318651, "MEAN_MOTION_DOT": 5.866e-05, "MEAN_MOTION_DDOT": 0}, "tle": {"line1": "1 47025U 99025FBB 25348.84412602  .00005866  00000+0  16319-2 0  9998", "line2": "2 47025  99.0332 195.5156 0040655 351.3377  26.4320 14.46327515627726"}}, "geometry": {"type": "Point", "coordinates": [13.396099401084767, -15.904510296207922]}}, {"type": "Feature", "properties": {"norad_id": 47036, "name": "FENGYUN 1C DEB", "group": "fengyun-1c-debris", "lat": 70.41495940230635, "lon": 7.088398450836452, "alt_km": 787.5442369156635, "timestamp": "2025-12-15T07:02:37.907348+00:00", "meta": {"OBJECT_NAME": "FENGYUN 1C DEB", "OBJECT_ID": "1999-025FBN", "EPOCH": "2025-12-13T21:36:35.845632", "MEAN_MOTION": 14.15176928, "ECCENTRICITY": 0.00688587, "INCLINATION": 98.7222, "RA_OF_ASC_NODE": 31.2877, "ARG_OF_PERICENTER": 94.4248, "MEAN_ANOMALY": 84.992, "EPHEMERIS_TYPE": 0, "CLASSIFICATION_TYPE": "U", "NORAD_CAT_ID": 47036, "ELEMENT_SET_NO": 999, "REV_AT_EPOCH": 59943, "BSTAR": 0.0001889836, "MEAN_MOTION_DOT": 3.33e-06, "MEAN_MOTION_DDOT": 0}, "tle": {"line1": "1 47036U 99025FBN 25347.90041488  .00000333  00000+0  18898-3 0  9995", "line2": "2 47036  98.7222  31.2877 0068858  94.4248  84.9920 14.15176928599432"}}, "geometry": {"type": "Point", "coordinates": [7.088398450836452, 70.41495940230635]}}, {"type": "Feature", "properties": {"norad_id": 47040, "name": "FENGYUN 1C DEB", "group": "fengyun-1c-debris", "lat": 40.37260973110664, "lon": 85.2937813128365, "alt_km": 865.618300913281, "timestamp": "2025-12-15T07:02:37.907358+00:00", "meta": {"OBJECT_NAME": "FENGYUN 1C DEB", "OBJECT_ID": "1999-025FBS", "EPOCH": "2025-12-10T23:56:36.325824", "MEAN_MOTION": 14.06483958, "ECCENTRICITY": 0.00627252, "INCLINATION": 100.2943, "RA_OF_ASC_NODE": 251.5252, "ARG_OF_PERICENTER": 237.4301, "MEAN_ANOMALY": 122.0795, "EPHEMERIS_TYPE": 0, "CLASSIFICATION_TYPE": "U", "NORAD_CAT_ID": 47040, "ELEMENT_SET_NO": 999, "REV_AT_EPOCH": 89084, "BSTAR": 0.00064394729, "MEAN_MOTION_DOT": 1.028e-05, "MEAN_MOTION_DDOT": 0}, "tle": {"line1": "1 47040U 99025FBS 25344.99764266  .00001028  00000+0  64395-3 0  9997", "line2": "2 47040 100.2943 251.5252 0062725 237.4301 122.0795 14.06483958890843"}}, "geometry": {"type": "Point", "coordinates": [85.2937813128365, 40.37260973110664]}}, {"type": "Feature", "properties": {"norad_id": 47041, "name": "FENGYUN 1C DEB", "group": "fengyun-1c-debris", "lat": -79.66386235970792, "lon": 143.2342067025414, "alt_km": 550.9786881121636, "timestamp": "2025-12-15T07:02:37.907368+00:00", "meta": {"OBJECT_NAME": "FENGYUN 1C DEB", "OBJECT_ID": "1999-025FBT", "EPOCH": "2025-12-10T19:53:59.087040", "MEAN_MOTION": 15.06982698, "ECCENTRICITY": 0.00146942, "INCLINATION": 98.256, "RA_OF_ASC_NODE": 11.2097, "ARG_OF_PERICENTER": 191.3996, "MEAN_ANOMALY": 344.1998, "EPHEMERIS_TYPE": 0, "CLASSIFICATION_TYPE": "U", "NORAD_CAT_ID": 47041, "ELEMENT_SET_NO": 999, "REV_AT_EPOCH": 71160, "BSTAR": 0.0030573384, "MEAN_MOTION_DOT": 0.00046063, "MEAN_MOTION_DDOT": 0}, "tle": {"line1": "1 47041U 99025FBT 25344.82915610  .00046063  00000+0  30573-2 0  9999", "line2": "2 47041  98.2560  11.2097 0014694 191.3996 344.1998 15.06982698711607"}}, "geometry": {"type": "Point", "coordinates": [143.2342067025414, -79.66386235970792]}}, {"type": "Feature", "properties": {"norad_id": 47042, "name": "FENGYUN 1C DEB", "group": "fengyun-1c-debris", "lat": -60.121407884762725, "lon": 50.838753446753316, "alt_km": 855.7773438964605, "timestamp": "2025-12-15T07:02:37.907378+00:00", "meta": {"OBJECT_NAME": "FENGYUN 1C DEB", "OBJECT_ID": "1999-025FBU", "EPOCH": "2025-12-11T22:52:31.155168", "MEAN_MOTION": 14.22834675, "ECCENTRICITY": 0.0055348, "INCLINATION": 99.0007, "RA_OF_ASC_NODE": 243.4409, "ARG_OF_PERICENTER": 36.8325, "MEAN_ANOMALY": 24.4112, "EPHEMERIS_TYPE": 0, "CLASSIFICATION_TYPE": "U", "NORAD_CAT_ID": 47042, "ELEMENT_SET_NO": 999, "REV_AT_EPOCH": 62510, "BSTAR": 0.00041842, "MEAN_MOTION_DOT": 9.08e-06, "MEAN_MOTION_DDOT": 0}, "tle": {"line1": "1 47042U 99025FBU 25345.95313837  .00000908  00000+0  41842-3 0  9998", "line2": "2 47042  99.0007 243.4409 0055348  36.8325  24.4112 14.22834675625102"}}, "geometry": {"type": "Point", "coordinates": [50.838753446753316, -60.121407884762725]}}, {"type": "Feature", "properties": {"norad_id": 47100, "name": "FENGYUN 1C DEB", "group": "fengyun-1c-debris", "lat": -80.96711137003217, "lon": -98.70882653196313, "alt_km": 712.6921197974507, "timestamp": "2025-12-15T07:02:37.907388+00:00", "meta": {"OBJECT_NAME": "FENGYUN 1C DEB", "OBJECT_ID": "1999-025FBY", "EPOCH": "2025-12-14T23:10:54.448608", "MEAN_MOTION": 14.51463701, "ECCENTRICITY": 0.00893263, "INCLINATION": 99.02, "RA_OF_ASC_NODE": 168.6542, "ARG_OF_PERICENTER": 346.9873, "MEAN_ANOMALY": 12.9016, "EPHEMERIS_TYPE": 0, "CLASSIFICATION_TYPE": "U", "NORAD_CAT_ID": 47100, "ELEMENT_SET_NO": 999, "REV_AT_EPOCH": 26800, "BSTAR": 0.0012231186, "MEAN_MOTION_DOT": 5.092e-05, "MEAN_MOTION_DDOT": 0}, "tle": {"line1": "1 47100U 99025FBY 25348.96590797  .00005092  00000+0  12231-2 0  9997", "line2": "2 47100  99.0200 168.6542 0089326 346.9873  12.9016 14.51463701268001"}}, "geometry": {"type": "Point", "coordinates": [-98.70882653196313, -80.96711137003217]}}]}